[{"OBJECT_NAME":"STARLINK-34522","OBJECT_ID":"2025-133W","EPOCH":"2026-03-09T09:33:10.885824","MEAN_MOTION":15.30177735,"ECCENTRICITY":0.00021578,"INCLINATION":53.1593,"RA_OF_ASC_NODE":118.157,"ARG_OF_PERICENTER":32.2245,"MEAN_ANOMALY":327.8887,"EPHEMERIS_TYPE":0,"CLASSIFICATION_TYPE":"U","NORAD_CAT_ID":64492,"ELEMENT_SET_NO":999,"REV_AT_EPOCH":4114,"BSTAR":0.0007235871,"MEAN_MOTION_DOT":0.00021118,"MEAN_MOTION_DDOT":0},{"OBJECT_NAME":"SIMSAT 2","OBJECT_ID":"2000-026B","EPOCH":"2026-03-09T20:25:01.673184","MEAN_MOTION":15.29036787,"ECCENTRICITY":0.00037035,"INCLINATION":86.3514,"RA_OF_ASC_NODE":176.4271,"ARG_OF_PERICENTER":287.9875,"MEAN_ANOMALY":72.0969,"EPHEMERIS_TYPE":0,"CLASSIFICATION_TYPE":"U","NORAD_CAT_ID":26366,"ELEMENT_SET_NO":999,"REV_AT_EPOCH":42803,"BSTAR":0.00013465771,"MEAN_MOTION_DOT":3.833e-5,"MEAN_MOTION_DDOT":0}]
